STARLINK-5534           
1 56477U 23064AF  26080.45563950 -.00005972  00000+0 -49307-3 0  9997
2 56477  69.9989  94.7150 0003039 272.0207  88.0604 14.98333685157506
STARLINK-6041           
1 56478U 23064AG  26080.46801553  .00002345  00000+0  20433-3 0  9991
2 56478  69.9995  94.7579 0002873 263.8596  96.2236 14.98316366157502
STARLINK-6044           
1 56479U 23064AH  26080.37619870  .00000347  00000+0  36904-4 0  9992
2 56479  69.9988  94.8377 0003207 266.7528  93.3264 14.98328487157495
STARLINK-6214           
1 56480U 23064AJ  26080.36344119  .00008983  00000+0  39817-3 0  9993
2 56480  69.9924  62.0766 0002626 258.5444 101.5433 15.21905367158313
STARLINK-6222           
1 56481U 23064AK  26080.45130547  .00000458  00000+0  46217-4 0  9994
2 56481  69.9986  94.6992 0003419 270.5268  89.5500 14.98331313157500
STARLINK-6220           
1 56482U 23064AL  26080.46383116  .00000389  00000+0  40417-4 0  9997
2 56482  69.9990  94.7443 0003293 269.8311  90.2471 14.98320762157500
STARLINK-5868           
1 56483U 23064AM  26080.45964863  .00000534  00000+0  52529-4 0  9990
2 56483  69.9985  94.7255 0003592 270.7309  89.3438 14.98334555157503
STARLINK-6221           
1 56484U 23064AN  26080.45547769  .00000687  00000+0  65389-4 0  9990
2 56484  69.9985  94.7138 0003367 270.3059  89.7714 14.98334137157497
STARLINK-6210           
1 56485U 23064AP  26080.43878260  .00000416  00000+0  42695-4 0  9997
2 56485  69.9988  94.6535 0003398 269.0221  91.0549 14.98327631157506
STARLINK-6196           
1 56487U 23064AR  26080.35511772  .00002494  00000+0  21670-3 0  9999
2 56487  69.9991  74.8983 0003266 272.9997  87.0788 14.98340521157981
STARLINK-6204           
1 56488U 23064AS  26080.39684229  .00000332  00000+0  35593-4 0  9991
2 56488  69.9989  75.0402 0003779 270.7520  89.3206 14.98331242157985
STARLINK-5923           
1 56489U 23064AT  26080.38432791 -.00001209  00000+0 -93497-4 0  9999
2 56489  69.9992  74.9963 0003109 275.7988  84.2816 14.98333554157989
STARLINK-5873           
1 56490U 23064AU  26080.33843303  .00000034  00000+0  10687-4 0  9994
2 56490  69.9990  75.2364 0003238 265.5715  94.5075 14.98326366157979
STARLINK-5842           
1 56491U 23064AV  26080.38014336 -.00000964  00000+0 -73003-4 0  9991
2 56491  69.9989  74.9801 0003028 270.6476  89.4336 14.98326990157985
STARLINK-5846           
1 56492U 23064AW  26080.37597415 -.00000195  00000+0 -85345-5 0  9994
2 56492  69.9992  74.9661 0003200 268.7567  91.3226 14.98329904157983
STARLINK-5841           
1 56493U 23064AX  26080.36322344  .00000927  00000+0  85440-4 0  9997
2 56493  69.9997  55.0383 0003240 276.8536  83.2254 14.98335978158474
