[{"OBJECT_NAME":"STARLINK-5534","OBJECT_ID":"2023-064AF","EPOCH":"2026-03-21T10:56:07.252800","MEAN_MOTION":14.98333685,"ECCENTRICITY":0.00030396,"INCLINATION":69.9989,"RA_OF_ASC_NODE":94.715,"ARG_OF_PERICENTER":272.0207,"MEAN_ANOMALY":88.0604,"EPHEMERIS_TYPE":0,"CLASSIFICATION_TYPE":"U","NORAD_CAT_ID":56477,"ELEMENT_SET_NO":999,"REV_AT_EPOCH":15750,"BSTAR":-0.00049307234,"MEAN_MOTION_DOT":-5.972e-5,"MEAN_MOTION_DDOT":0},{"OBJECT_NAME":"STARLINK-6041","OBJECT_ID":"2023-064AG","EPOCH":"2026-03-21T11:13:56.541792","MEAN_MOTION":14.98316366,"ECCENTRICITY":0.00028736,"INCLINATION":69.9995,"RA_OF_ASC_NODE":94.7579,"ARG_OF_PERICENTER":263.8596,"MEAN_ANOMALY":96.2236,"EPHEMERIS_TYPE":0,"CLASSIFICATION_TYPE":"U","NORAD_CAT_ID":56478,"ELEMENT_SET_NO":999,"REV_AT_EPOCH":15750,"BSTAR":0.00020432739,"MEAN_MOTION_DOT":2.345e-5,"MEAN_MOTION_DDOT":0},{"OBJECT_NAME":"STARLINK-6044","OBJECT_ID":"2023-064AH","EPOCH":"2026-03-21T09:01:43.567680","MEAN_MOTION":14.98328487,"ECCENTRICITY":0.00032074,"INCLINATION":69.9988,"RA_OF_ASC_NODE":94.8377,"ARG_OF_PERICENTER":266.7528,"MEAN_ANOMALY":93.3264,"EPHEMERIS_TYPE":0,"CLASSIFICATION_TYPE":"U","NORAD_CAT_ID":56479,"ELEMENT_SET_NO":999,"REV_AT_EPOCH":15749,"BSTAR":3.6904457e-5,"MEAN_MOTION_DOT":3.47e-6,"MEAN_MOTION_DDOT":0},{"OBJECT_NAME":"STARLINK-6214","OBJECT_ID":"2023-064AJ","EPOCH":"2026-03-21T08:43:21.318816","MEAN_MOTION":15.21905367,"ECCENTRICITY":0.00026262,"INCLINATION":69.9924,"RA_OF_ASC_NODE":62.0766,"ARG_OF_PERICENTER":258.5444,"MEAN_ANOMALY":101.5433,"EPHEMERIS_TYPE":0,"CLASSIFICATION_TYPE":"U","NORAD_CAT_ID":56480,"ELEMENT_SET_NO":999,"REV_AT_EPOCH":15831,"BSTAR":0.00039816533,"MEAN_MOTION_DOT":8.983e-5,"MEAN_MOTION_DDOT":0},{"OBJECT_NAME":"STARLINK-6222","OBJECT_ID":"2023-064AK","EPOCH":"2026-03-21T10:49:52.792608","MEAN_MOTION":14.98331313,"ECCENTRICITY":0.00034191,"INCLINATION":69.9986,"RA_OF_ASC_NODE":94.6992,"ARG_OF_PERICENTER":270.5268,"MEAN_ANOMALY":89.55,"EPHEMERIS_TYPE":0,"CLASSIFICATION_TYPE":"U","NORAD_CAT_ID":56481,"ELEMENT_SET_NO":999,"REV_AT_EPOCH":15750,"BSTAR":4.621717e-5,"MEAN_MOTION_DOT":4.58e-6,"MEAN_MOTION_DDOT":0},{"OBJECT_NAME":"STARLINK-6220","OBJECT_ID":"2023-064AL","EPOCH":"2026-03-21T11:07:55.012224","MEAN_MOTION":14.98320762,"ECCENTRICITY":0.00032937,"INCLINATION":69.999,"RA_OF_ASC_NODE":94.7443,"ARG_OF_PERICENTER":269.8311,"MEAN_ANOMALY":90.2471,"EPHEMERIS_TYPE":0,"CLASSIFICATION_TYPE":"U","NORAD_CAT_ID":56482,"ELEMENT_SET_NO":999,"REV_AT_EPOCH":15750,"BSTAR":4.0416639e-5,"MEAN_MOTION_DOT":3.89e-6,"MEAN_MOTION_DDOT":0},{"OBJECT_NAME":"STARLINK-5868","OBJECT_ID":"2023-064AM","EPOCH":"2026-03-21T11:01:53.641632","MEAN_MOTION":14.98334555,"ECCENTRICITY":0.00035926,"INCLINATION":69.9985,"RA_OF_ASC_NODE":94.7255,"ARG_OF_PERICENTER":270.7309,"MEAN_ANOMALY":89.3438,"EPHEMERIS_TYPE":0,"CLASSIFICATION_TYPE":"U","NORAD_CAT_ID":56483,"ELEMENT_SET_NO":999,"REV_AT_EPOCH":15750,"BSTAR":5.2529432e-5,"MEAN_MOTION_DOT":5.34e-6,"MEAN_MOTION_DDOT":0},{"OBJECT_NAME":"STARLINK-6221","OBJECT_ID":"2023-064AN","EPOCH":"2026-03-21T10:55:53.272416","MEAN_MOTION":14.98334137,"ECCENTRICITY":0.00033671,"INCLINATION":69.9985,"RA_OF_ASC_NODE":94.7138,"ARG_OF_PERICENTER":270.3059,"MEAN_ANOMALY":89.7714,"EPHEMERIS_TYPE":0,"CLASSIFICATION_TYPE":"U","NORAD_CAT_ID":56484,"ELEMENT_SET_NO":999,"REV_AT_EPOCH":15749,"BSTAR":6.5388633e-5,"MEAN_MOTION_DOT":6.87e-6,"MEAN_MOTION_DDOT":0},{"OBJECT_NAME":"STARLINK-6210","OBJECT_ID":"2023-064AP","EPOCH":"2026-03-21T10:31:50.816640","MEAN_MOTION":14.98327631,"ECCENTRICITY":0.00033984,"INCLINATION":69.9988,"RA_OF_ASC_NODE":94.6535,"ARG_OF_PERICENTER":269.0221,"MEAN_ANOMALY":91.0549,"EPHEMERIS_TYPE":0,"CLASSIFICATION_TYPE":"U","NORAD_CAT_ID":56485,"ELEMENT_SET_NO":999,"REV_AT_EPOCH":15750,"BSTAR":4.2695014e-5,"MEAN_MOTION_DOT":4.16e-6,"MEAN_MOTION_DDOT":0},{"OBJECT_NAME":"STARLINK-6196","OBJECT_ID":"2023-064AR","EPOCH":"2026-03-21T08:31:22.171008","MEAN_MOTION":14.98340521,"ECCENTRICITY":0.00032664,"INCLINATION":69.9991,"RA_OF_ASC_NODE":74.8983,"ARG_OF_PERICENTER":272.9997,"MEAN_ANOMALY":87.0788,"EPHEMERIS_TYPE":0,"CLASSIFICATION_TYPE":"U","NORAD_CAT_ID":56487,"ELEMENT_SET_NO":999,"REV_AT_EPOCH":15798,"BSTAR":0.00021669791,"MEAN_MOTION_DOT":2.494e-5,"MEAN_MOTION_DDOT":0},{"OBJECT_NAME":"STARLINK-6204","OBJECT_ID":"2023-064AS","EPOCH":"2026-03-21T09:31:27.173856","MEAN_MOTION":14.98331242,"ECCENTRICITY":0.00037795,"INCLINATION":69.9989,"RA_OF_ASC_NODE":75.0402,"ARG_OF_PERICENTER":270.752,"MEAN_ANOMALY":89.3206,"EPHEMERIS_TYPE":0,"CLASSIFICATION_TYPE":"U","NORAD_CAT_ID":56488,"ELEMENT_SET_NO":999,"REV_AT_EPOCH":15798,"BSTAR":3.5593448e-5,"MEAN_MOTION_DOT":3.32e-6,"MEAN_MOTION_DDOT":0},{"OBJECT_NAME":"STARLINK-5923","OBJECT_ID":"2023-064AT","EPOCH":"2026-03-21T09:13:25.931424","MEAN_MOTION":14.98333554,"ECCENTRICITY":0.00031097,"INCLINATION":69.9992,"RA_OF_ASC_NODE":74.9963,"ARG_OF_PERICENTER":275.7988,"MEAN_ANOMALY":84.2816,"EPHEMERIS_TYPE":0,"CLASSIFICATION_TYPE":"U","NORAD_CAT_ID":56489,"ELEMENT_SET_NO":999,"REV_AT_EPOCH":15798,"BSTAR":-9.3497464e-5,"MEAN_MOTION_DOT":-1.209e-5,"MEAN_MOTION_DDOT":0},{"OBJECT_NAME":"STARLINK-5873","OBJECT_ID":"2023-064AU","EPOCH":"2026-03-21T08:07:20.613792","MEAN_MOTION":14.98326366,"ECCENTRICITY":0.0003238,"INCLINATION":69.999,"RA_OF_ASC_NODE":75.2364,"ARG_OF_PERICENTER":265.5715,"MEAN_ANOMALY":94.5075,"EPHEMERIS_TYPE":0,"CLASSIFICATION_TYPE":"U","NORAD_CAT_ID":56490,"ELEMENT_SET_NO":999,"REV_AT_EPOCH":15797,"BSTAR":1.0687385e-5,"MEAN_MOTION_DOT":3.4e-7,"MEAN_MOTION_DDOT":0},{"OBJECT_NAME":"STARLINK-5842","OBJECT_ID":"2023-064AV","EPOCH":"2026-03-21T09:07:24.386304","MEAN_MOTION":14.9832699,"ECCENTRICITY":0.00030284,"INCLINATION":69.9989,"RA_OF_ASC_NODE":74.9801,"ARG_OF_PERICENTER":270.6476,"MEAN_ANOMALY":89.4336,"EPHEMERIS_TYPE":0,"CLASSIFICATION_TYPE":"U","NORAD_CAT_ID":56491,"ELEMENT_SET_NO":999,"REV_AT_EPOCH":15798,"BSTAR":-7.3003386e-5,"MEAN_MOTION_DOT":-9.64e-6,"MEAN_MOTION_DDOT":0},{"OBJECT_NAME":"STARLINK-5846","OBJECT_ID":"2023-064AW","EPOCH":"2026-03-21T09:01:24.166560","MEAN_MOTION":14.98329904,"ECCENTRICITY":0.00032002,"INCLINATION":69.9992,"RA_OF_ASC_NODE":74.9661,"ARG_OF_PERICENTER":268.7567,"MEAN_ANOMALY":91.3226,"EPHEMERIS_TYPE":0,"CLASSIFICATION_TYPE":"U","NORAD_CAT_ID":56492,"ELEMENT_SET_NO":999,"REV_AT_EPOCH":15798,"BSTAR":-8.534519e-6,"MEAN_MOTION_DOT":-1.95e-6,"MEAN_MOTION_DDOT":0},{"OBJECT_NAME":"STARLINK-5841","OBJECT_ID":"2023-064AX","EPOCH":"2026-03-21T08:43:02.505216","MEAN_MOTION":14.98335978,"ECCENTRICITY":0.00032401,"INCLINATION":69.9997,"RA_OF_ASC_NODE":55.0383,"ARG_OF_PERICENTER":276.8536,"MEAN_ANOMALY":83.2254,"EPHEMERIS_TYPE":0,"CLASSIFICATION_TYPE":"U","NORAD_CAT_ID":56493,"ELEMENT_SET_NO":999,"REV_AT_EPOCH":15847,"BSTAR":8.5439861e-5,"MEAN_MOTION_DOT":9.27e-6,"MEAN_MOTION_DDOT":0}]
